satname,norad_id,inclination_deg,eccentricity,mean_motion_rev_per_day,perigee_km,apogee_km,l1,l2
STARLINK-1422,45696,53.1534,0.0001765,15.40387566,443.7603257024075,446.1688805683152,1 45696U 20035AR  26202.15509816  .00032410  00000+0  79645-3 0  9990,2 45696  53.1534 146.1540 0001765  85.6428 274.4779 15.40387566339455
STARLINK-1351,45697,53.041,8.6e-05,15.70475011,356.9592023840105,358.11773856493164,1 45697U 20035AS  26201.98873780  .00043999  00000+0  35464-3 0  9990,2 45697  53.0410  89.4867 0000860  30.1509 329.9557 15.70475011340211
STARLINK-1400,45700,53.0417,0.0001408,15.75480445,342.31799348372897,344.21074010861867,1 45700U 20035AV  26202.24172614  .00068438  00000+0  44228-3 0  9996,2 45700  53.0417  89.8828 0001408 164.9625 195.1436 15.75480445340220
STARLINK-1403,45701,53.1522,0.0004553,15.37322832,450.91904882284416,457.1404198511327,1 45701U 20035AW  26202.16904191  .00031483  00000+0  85513-3 0  9993,2 45701  53.1522 134.3481 0004553  50.0905 310.0498 15.37322832339610
STARLINK-1407,45703,53.0266,0.0003865,15.81586846,323.3614969418941,328.5437582240165,1 45703U 20035AY  26201.73519306  .00081474  00000+0  39888-3 0  9996,2 45703  53.0266  16.8267 0003865 203.2030 156.8818 15.81586846341204
STARLINK-1423,45710,53.0408,0.0003012,15.73911277,345.7052234472703,349.7568863635461,1 45710U 20035BF  26202.10341919  .00058568  00000+0  40612-3 0  9994,2 45710  53.0408  86.9407 0003012 204.9732 155.1141 15.73911277340240
STARLINK-1433,45711,53.0406,0.0001341,15.80004439,329.52845143534796,331.3276885871246,1 45711U 20035BG  26202.62133022  .00096858  00000+0  50853-3 0  9998,2 45711  53.0406  81.7802 0001341 213.0278 147.0659 15.80004439340368
STARLINK-1434,45712,53.0473,0.000288,15.37799709,450.64995178250956,454.5844662068903,1 45712U 20035BH  26202.45657109  .00037799  00000+0  10082-2 0  9995,2 45712  53.0473 114.9267 0002880 106.6795 253.4524 15.37799709339901
STARLINK-1465,45731,53.0426,0.0003161,15.73172686,347.7093359398159,351.9627605009018,1 45731U 20038B   26202.50834827  .00065787  00000+0  46987-3 0  9991,2 45731  53.0426 289.4176 0003161 341.3218  18.7684 15.73172686337296
STARLINK-1471,45735,53.0428,0.0002948,15.56418586,396.0344926719072,400.02972197758663,1 45735U 20038F   26202.42434650  .00041701  00000+0  58348-3 0  9990,2 45735  53.0428 217.8792 0002948   8.3362 351.7697 15.56418586338303
STARLINK-1480,45741,53.0457,0.0001334,15.69569225,359.2307399252568,361.0285094607243,1 45741U 20038M   26202.26432914  .00045279  00000+0  37871-3 0  9992,2 45741  53.0457 285.3754 0001334 129.7167 230.3968 15.69569225337346
STARLINK-1500,45744,53.034,0.0002942,15.41224235,440.4884237225533,444.50168362293334,1 45744U 20038Q   26202.59453058  .00022789  00000+0  54823-3 0  9990,2 45744  53.0340 281.4053 0002942 352.8633   7.2329 15.41224235337422
STARLINK-1504,45746,53.0177,0.000249,15.61909921,380.457120985061,383.82373914523305,1 45746U 20038S   26202.40452446  .00029791  00000+0  34091-3 0  9997,2 45746  53.0177 212.7506 0002490  11.1490 348.9577 15.61909921338353
STARLINK-1506,45747,53.0748,0.0002681,15.29411557,475.73221427664885,479.40824449304546,1 45747U 20038T   26202.55941396  .00016336  00000+0  57618-3 0  9992,2 45747  53.0748 301.5128 0002681 336.3897  23.6978 15.29411557337156
STARLINK-1464,45751,53.044,0.0001489,15.56511549,396.75336775747746,398.77123056876826,1 45751U 20038X   26202.56478765  .00048937  00000+0  68065-3 0  9993,2 45751  53.0440 280.8484 0001489 134.7809 225.3323 15.56511549337430
STARLINK-1477,45754,53.049,8.57e-05,15.21049081,502.08527070592027,503.26464187522924,1 45754U 20038AA  26202.04435110  .00016401  00000+0  74216-3 0  9992,2 45754  53.0490 323.6540 0000857 358.1717   1.9275 15.21049081336785
STARLINK-1478,45755,53.0432,0.000439,15.75950341,338.9781261289663,344.878343405092,1 45755U 20038AB  26202.48212906  .00074764  00000+0  47242-3 0  9992,2 45755  53.0432 260.4668 0004390  19.0634 341.0549 15.75950341337690
STARLINK-1493,45759,53.0441,0.0002116,15.69446024,359.0563627306183,361.9081463991506,1 45759U 20038AF  26202.59009451  .00056291  00000+0  47137-3 0  9995,2 45759  53.0441 271.3442 0002116 113.4935 246.6304 15.69446024337557
STARLINK-1502,45764,53.0423,0.0003604,15.68611716,360.44199300512173,365.3009118976479,1 45764U 20038AL  26202.36056482  .00051085  00000+0  44335-3 0  9995,2 45764  53.0423 276.6997 0003604  19.1962 340.9189 15.68611716337472
STARLINK-1470,45772,53.039,0.0001507,15.38491459,449.54043377709513,451.59860592217774,1 45772U 20038AU  26202.47627874  .00025668  00000+0  67378-3 0  9995,2 45772  53.0390 268.0902 0001507  28.5834 331.5251 15.38491459337605
STARLINK-1482,45773,53.1553,0.000146,15.41429147,440.8948428633621,442.88629091289386,1 45773U 20038AV  26202.60409363  .00032690  00000+0  77607-3 0  9991,2 45773  53.1553 283.6081 0001460  50.2828 309.8306 15.41429147337420
STARLINK-1496,45780,53.0419,0.0006581,15.74076943,342.83314763872204,351.6851140261242,1 45780U 20038BC  26202.50056983  .00069934  00000+0  47958-3 0  9991,2 45780  53.0419 244.7935 0006581  19.4029 340.7239 15.74076943337914
STARLINK-1513,45786,53.1589,0.0002632,15.31941446,468.21791678043337,471.8227868104186,1 45786U 20038BJ  26202.61996405  .00024015  00000+0  77725-3 0  9997,2 45786  53.1589 288.0146 0002632  45.7095 314.4122 15.31941446337362
STARLINK-1522,46027,53.062,0.0001645,15.14784985,520.4963924895428,522.7664162945875,1 46027U 20055A   26202.52718465  .00013373  00000+0  72708-3 0  9994,2 46027  53.0620 240.4712 0001645  58.7256 301.3898 15.14784985329138
STARLINK-1523,46028,53.1589,0.0004957,15.33324101,462.51031789487206,469.29549906013654,1 46028U 20055B   26202.43122571  .00023311  00000+0  72283-3 0  9993,2 46028  53.1589 224.9373 0004957  26.7471 333.3786 15.33324101329386
STARLINK-1526,46029,53.1585,0.0001066,15.31703305,470.0000539728753,471.46023244780827,1 46029U 20055C   26202.50716466  .00001911  00000+0  73316-4 0  9995,2 46029  53.1585 224.7662 0001066  82.1303 277.9819 15.31703305329385
STARLINK-1555,46032,53.1598,0.000111,15.31709008,469.9529206121151,471.47336534385613,1 46032U 20055F   26202.36267911  .00001886  00000+0  72514-4 0  9999,2 46032  53.1598 225.4465 0001110  63.6258 296.4858 15.31709008329368
STARLINK-1556,46033,53.1588,0.0001127,15.31703365,469.9580970472289,471.50183166099396,1 46033U 20055G   26202.47453662  .00000957  00000+0  42605-4 0  9998,2 46033  53.1588 224.9170 0001127  69.4478 290.6644 15.31703365329359
STARLINK-1557,46034,53.1586,9.61e-05,15.31711473,470.0476212305284,471.3639688157318,1 46034U 20055H   26202.35336465  .00002989  00000+0  10799-3 0  9992,2 46034  53.1586 225.5441 0000961  50.4459 309.6627 15.31711473329339
STARLINK-1558,46035,53.1585,0.0001166,15.31705605,469.924709953787,471.5218641727297,1 46035U 20055J   26202.36736048  .00001534  00000+0  61185-4 0  9996,2 46035  53.1585 225.5496 0001166  82.0294 278.0840 15.31705605329364
STARLINK-1560,46036,53.1589,0.0001194,15.31706336,469.90335434635654,471.5388616625487,1 46036U 20055K   26202.34870762  .00001269  00000+0  52643-4 0  9991,2 46036  53.1589 225.5919 0001194  79.8492 280.2644 15.31706336329363
STARLINK-1569,46039,53.1598,0.0001157,15.31708459,469.9223673519773,471.5071916537545,1 46039U 20055N   26202.35801623  .00001967  00000+0  75116-4 0  9990,2 46039  53.1598 225.4562 0001157  74.2837 285.8293 15.31708459329358
STARLINK-1582,46043,53.1583,0.0001165,15.31710197,469.9117080391443,471.50748929663405,1 46043U 20055S   26202.30132050  .00002324  00000+0  86593-4 0  9990,2 46043  53.1583 225.0266 0001165  90.6508 269.4627 15.31710197329351
STARLINK-1591,46045,53.1589,0.0001171,15.31698867,469.94136875013646,471.5453765334096,1 46045U 20055U   26202.32539492  .00001770  00000+0  68804-4 0  9994,2 46045  53.1589 225.6104 0001171  76.5882 283.5250 15.31698867329337
STARLINK-1524,46047,53.1592,0.000124,15.31701376,469.88663320553223,471.585153683106,1 46047U 20055W   26202.40115647  .00000839  00000+0  38784-4 0  9996,2 46047  53.1592 211.8599 0001240  94.7352 265.3791 15.31701376329551
STARLINK-1527,46048,53.1593,0.0001313,15.31707908,469.81716753626097,471.61567644487604,1 46048U 20055X   26202.20074873 -.00000065  00000+0  96867-5 0  9999,2 46048  53.1593 212.7721 0001313  92.1692 267.9460 15.31707908329491
STARLINK-1540,46051,53.1582,9.79e-05,15.31706944,470.04879256984714,471.38979863252644,1 46051U 20055AA  26202.25203623  .00001444  00000+0  58260-4 0  9990,2 46051  53.1582 212.7463 0000979  77.8252 282.2859 15.31706944329542
STARLINK-1541,46052,53.1418,0.00021,16.19815229,218.66797127730297,221.43921132564992,1 46052U 20055AB  26203.07469844  .01756059  11809-4  89856-3 0  9999,2 46052  53.1418 171.7913 0002100  54.2036 305.9198 16.19815229330143
STARLINK-1543,46053,53.1591,0.0001112,15.3169756,469.985672817651,471.5088646790218,1 46053U 20055AC  26202.28929577  .00001081  00000+0  46595-4 0  9993,2 46053  53.1591 212.3790 0001112 100.6834 259.4293 15.31697560329545
STARLINK-1548,46054,53.1591,0.0001106,15.3170646,469.96325470361535,471.4782220353418,1 46054U 20055AD  26202.30329103  .00001409  00000+0  57137-4 0  9994,2 46054  53.1591 212.3909 0001106  73.0393 287.0729 15.31706460329545
STARLINK-1554,46055,53.1592,0.0001323,15.316927,469.85564692676326,471.6678655376627,1 46055U 20055AE  26202.28465375  .00000208  00000+0  18458-4 0  9993,2 46055  53.1592 212.4212 0001323  92.0360 268.0793 15.31692700329542
STARLINK-1564,46058,53.159,9.29e-05,15.30206264,474.5596916384893,475.83304097794917,1 46058U 20055AH  26202.31697829  .00002917  00000+0  11055-3 0  9995,2 46058  53.1590 213.6845 0000929  62.3147 297.7948 15.30206264329526
STARLINK-1570,46059,53.1587,0.0001154,15.31707854,469.9262252569042,471.5069406638513,1 46059U 20055AJ  26202.44308384  .00001467  00000+0  59000-4 0  9997,2 46059  53.1587 211.5628 0001154  80.0123 280.1008 15.31707854329526
